SXM-7                   
1 47240U 20096A   24263.00461603 -.00000213  00000+0  00000+0 0  9996
2 47240   0.0132 137.9360 0004466 344.2056 152.7372  1.00270094  1076
CMS-01                  
1 47256U 20099A   24263.56577213 -.00000173  00000+0  00000+0 0  9997
2 47256   0.0394 109.1796 0006612 148.6109  27.8555  1.00270568 13824
TURKSAT 5A              
1 47306U 21001A   24262.02594095  .00000145  00000+0  00000+0 0  9992
2 47306   0.0251 105.7907 0000066  94.7214 197.1963  1.00271188 13578
TIANTONG-1 3            
1 47321U 21003A   24263.53845137 -.00000165  00000+0  00000+0 0  9997
2 47321   2.6941 313.9959 0004562 251.8864  68.3971  1.00269308 13581
TJS-6                   
1 47613U 21010A   24263.58521580  .00000034  00000+0  00000+0 0  9991
2 47613   0.2157 267.3005 0003774 308.4824 172.3443  1.00271267 13432
SBIRS GEO-5 (USA 315)   
1 48618U 21042A   24263.36507850  .00000105  00000+0  00000+0 0  9991
2 48618   6.0034 325.8472 0002141 223.4291 321.8027  1.00272151 12380
FENGYUN 4B              
1 48808U 21047A   24263.48174406 -.00000338  00000+0  00000+0 0  9996
2 48808   0.2446 276.3028 0004280 158.1925 202.5295  1.00262652 12203
SXM-8                   
1 48838U 21049A   24262.07485462 -.00000214  00000+0  00000+0 0  9995
2 48838   0.0120 217.2619 0006550 182.6244 259.3903  1.00272104 12200
TIANLIAN 1-05           
1 49011U 21063A   24263.52541931  .00000100  00000+0  00000+0 0  9993
2 49011   0.0879 321.3728 0003983 238.9466   4.5845  1.00272095 11709
STAR ONE D2             
1 49055U 21069A   24262.36665687 -.00000274  00000+0  00000+0 0  9996
2 49055   0.0202 132.3328 0002611  46.4286 241.0079  1.00272191 11526
EUTELSAT QUANTUM        
1 49056U 21069B   24263.53167470  .00000117  00000+0  00000+0 0  9999
2 49056   0.0351 304.2028 0002176 246.7493  47.0667  1.00271791 11555
ZHONGXING-2E            
1 49062U 21071A   24262.61186211 -.00000299  00000+0  00000+0 0  9993
2 49062   0.0244  88.7551 0001567 155.1053  72.4208  1.00266435 11659
TJS-7                   
1 49115U 21077A   24263.50241160 -.00000132  00000+0  00000+0 0  9998
2 49115   0.2913 271.1609 0002876 250.4954 278.6360  1.00269945 11443
CHINASAT 9B             
1 49125U 21080A   24263.54236373 -.00000321  00000+0  00000+0 0  9997
2 49125   0.0098 210.6648 0003677 345.0403  99.8951  1.00270721 11271
SHIJIAN-21 (SJ-21)      
1 49330U 21094A   24263.60675926 -.00000227  00000+0  00000+0 0  9993
2 49330   9.9869  44.5509 0077916  36.2609 284.9105  1.00285596 10887
SES-17                  
1 49332U 21095A   24261.79236675 -.00000281  00000+0  00000+0 0  9998
2 49332   0.0210 153.1510 0001098  31.2215  30.9796  1.00267047 11445
SYRACUSE 4A             
1 49333U 21095B   24261.24910337  .00000126  00000+0  00000+0 0  9990
2 49333   0.0236 177.3700 0001494   3.6167 310.8493  1.00269237 11562
QZS-1R                  
1 49336U 21096A   24263.40410862 -.00000227  00000+0  00000+0 0  9995
2 49336  36.1373  89.0987 0743705 269.7526 280.0000  1.00289491 10638
ZHONGXING-1D            
1 49505U 21114A   24263.54809782 -.00000345  00000+0  00000+0 0  9993
2 49505   0.0502 348.3974 0001612 282.4666  55.5117  1.00275185 10457
STPSAT-6                
1 49817U 21118A   24263.56138345 -.00000054  00000+0  00000+0 0  9992
2 49817   0.0012 180.7694 0001063  72.4563 196.1915  1.00271414 10201
LDPE-1                  
1 49818U 21118B   24263.46097397 -.00000156  00000+0  00000+0 0  9996
2 49818   2.5933  86.7862 0004264 148.7111 188.2818  1.00519304 10257
EXPRESS AMU-7           
1 50001U 21123A   24260.60826422 -.00000251  00000+0  00000+0 0  9996
2 50001   0.0282 243.4090 0000312 228.3927 248.2125  1.00273011 10146
EXPRESS AMU-3           
1 50002U 21123B   24261.72186447 -.00000331  00000+0  00000+0 0  9996
2 50002   0.0235 225.9193 0000529 224.3009 269.7974  1.00272277   648
TIANLIAN 2-02           
1 50005U 21124A   24262.15327312 -.00000023  00000+0  00000+0 0  9994
2 50005   0.4371 273.2580 0002263 304.9184   5.5452  1.00271125 10221
TURKSAT 5B              
1 50212U 21126A   24262.82688395  .00000137  00000+0  00000+0 0  9996
2 50212   0.0695 344.6754 0001785 315.2954  37.9577  1.00270569  9912
INMARSAT 6-F1           
1 50319U 21128A   24263.10974130 -.00000180  00000+0  00000+0 0  9992
2 50319   0.0177 174.7057 0000199  73.4540 233.5947  1.00268090  9882
SHIYAN 12 01 (SY-12 01) 
1 50321U 21129A   24263.60693475 -.00000055  00000+0  00000+0 0  9992
2 50321   2.0237  89.2781 0001303 293.2696   5.7466  1.00112545 10127
SHIYAN 12 02 (SY-12 02) 
1 50322U 21129B   24263.53514991  .00000036  00000+0  00000+0 0  9998
2 50322   2.0234  89.3014 0003100 149.2413  18.3161  1.00060112 10123
TJS-9                   
1 50574U 21135A   24263.56229711 -.00000308  00000+0  00000+0 0  9993
2 50574   0.0605 285.3514 0000375 308.0645 105.1830  1.00268069 10059
USA 324                 
1 51280U 22006A   24245.30806179 -.00000373  00000+0  00000+0 0  9999
2 51280   1.5574  87.3122 0001485  63.8248  64.4114  1.00091944  9571
USA 325                 
1 51281U 22006B   24260.12966039 -.00000015  00000+0  00000+0 0  9992
2 51281   0.5595  86.6072 0000566 166.9692 218.8866  1.00115184  9726
GOES 18                 
1 51850U 22021A   24263.54007633  .00000088  00000+0  00000+0 0  9995
2 51850   0.0363  18.1738 0000468 236.9211 161.2721  1.00271999   214
ZHONGXING-6D            
1 52255U 22038A   24262.65830373 -.00000363  00000+0  00000+0 0  9996
2 52255   0.0471 228.8066 0002546 352.3436 138.8306  1.00266717  9062
NILESAT 301             
1 52817U 22061A   24263.37778387 -.00000066  00000+0  00000+0 0  9992
2 52817   0.0237 343.6276 0001964 196.6637 307.4677  1.00270205  8364
CMS-02 (GSAT 24)        
1 52903U 22067A   24263.56577213 -.00000174  00000+0  00000+0 0  9990
2 52903   0.0517 256.2207 0005948 216.7329 172.6730  1.00272966  8236
MEASAT 3D               
1 52904U 22067B   24261.96694418 -.00000251  00000+0  00000+0 0  9996
2 52904   0.0525 344.9385 0002261 253.8760 198.1940  1.00269803  8258
SES-22                  
1 52933U 22071A   24262.16716160  .00000095  00000+0  00000+0 0  9990
2 52933   0.0177 221.5109 0002170   4.0854  53.1907  1.00274138  8177
WFOV (USA 332)          
1 52940U 22073A   24263.54592582 -.00000370  00000+0  00000+0 0  9990
2 52940   2.0649  86.8756 0001627  42.7662 185.0886  1.00267951  7998
TIANLIAN 2-03           
1 53100U 22078A   24262.97530701  .00000062  00000+0  00000+0 0  9992
2 53100   0.9907 278.5701 0001752 267.3729 174.0653  1.00272653  8175
SBIRS GEO-6 (USA 336)   
1 53355U 22092A   24262.90610867 -.00000306  00000+0  00000+0 0  9997
2 53355   4.4603 311.4091 0001785 230.6189 281.3531  1.00267906  7853
EUTELSAT KONNECT VHTS   
1 53765U 22110A   24261.36438052  .00000009  00000+0  00000+0 0  9995
2 53765   0.0508  98.7928 0002740  63.4294 328.4554  1.00271211   506
ZHONGXING-1E            
1 53813U 22112A   24263.53836448 -.00000157  00000+0  00000+0 0  9998
2 53813   0.0108 128.0545 0002058 118.5600  27.5069  1.00269285  7472
SES-20                  
1 53960U 22123A   24262.64348659 -.00000109  00000+0  00000+0 0  9993
2 53960   0.0087 181.8209 0001702 288.4259  16.3628  1.00270666  7165
SES-21                  
1 53961U 22123B   24263.53670569  .00000061  00000+0  00000+0 0  9997
2 53961   0.0183  80.5391 0001043  95.1942 245.4137  1.00271512   849
GALAXY 33 (G-33)        
1 54026U 22128A   24263.06664862  .00000070  00000+0  00000+0 0  9992
2 54026   0.0132 235.5975 0001856 306.1010  67.7731  1.00273946  7372
GALAXY 34 (G-34)        
1 54027U 22128B   24262.99589493  .00000050  00000+0  00000+0 0  9998
2 54027   0.0194 178.4890 0001485   3.9870  45.5106  1.00271254  7534
ANGOSAT 2               
1 54033U 22131A   24262.52541094  .00000127  00000+0  00000+0 0  9998
2 54033   0.0110 158.7296 0001786 115.7698 295.5857  1.00272868  7086
EUTELSAT HOTBIRD 13F    
1 54048U 22134A   24261.73676329  .00000078  00000+0  00000+0 0  9994
2 54048   0.0714 292.9122 0001838  70.1842 272.3043  1.00271682  7054
LDPE-2                  
1 54219U 22144A   24263.46010167 -.00000058  00000+0  00000+0 0  9998
2 54219   4.0392  64.9515 0000845 195.4299 161.0798  0.99913164  5433
EUTELSAT HOTBIRD 13G    
1 54225U 22146A   24260.73546737  .00000079  00000+0  00000+0 0  9993
2 54225   0.0561 247.0874 0002147 289.5490  97.3103  1.00271425  1089
ZHONGXING-19            
1 54230U 22148A   24263.57757626 -.00000088  00000+0  00000+0 0  9998
2 54230   0.0117 169.3097 0008372  61.6101 139.3650  1.00271228  7002
GALAXY 31 (G-31)        
1 54243U 22153A   24263.14056736  .00000005  00000+0  00000+0 0  9993
2 54243   0.0121 211.6065 0001527 345.3574  91.1846  1.00271678   798
GALAXY 32 (G-32)        
1 54244U 22153B   24259.49887251 -.00000181  00000+0  00000+0 0  9997
2 54244   0.0201 117.4386 0000252 337.6075 348.5112  1.00271750  6726
EUTELSAT 10B            
1 54259U 22157A   24263.26785750  .00000059  00000+0  00000+0 0  9991
2 54259   0.0533  96.0234 0000607 301.6370  67.4445  1.00267046  6658
GALAXY 35 (G-35)        
1 54741U 22170A   24262.93147774 -.00000170  00000+0  00000+0 0  9998
2 54741   0.0135 222.5916 0002002 319.5725  58.4003  1.00270694  6516
GALAXY 36 (G-36)        
1 54742U 22170B   24261.93102784 -.00000193  00000+0  00000+0 0  9995
2 54742   0.0107 173.0453 0002396 325.6880 104.7841  1.00270229  6382
METEOSAT-12 (MTG-I1)    
1 54743U 22170C   24262.30624578 -.00000014  00000+0  00000+0 0  9990
2 54743   0.6184  47.5591 0001919 102.3324 317.8455  1.00274117  6596
SHIJIAN-23 (SJ-23)      
1 55131U 23002A   24263.53601872 -.00000089  00000+0  00000+0 0  9997
2 55131   2.0720  86.4965 0000936 143.7312  31.3029  1.00477009  6131
USA 340                 
1 55138U 22144E   24260.91785406 -.00000208  00000+0  00000+0 0  9998
2 55138   4.0008  65.7300 0001934 103.3914 262.3274  0.99551915  5370
